{
  "type": "FeatureCollection",
  "features": [
    {
      "type": "Feature",
      "properties": {
        "norad_id": 30050,
        "name": "FENGYUN 1C DEB",
        "group": "fengyun-1c-debris",
        "lat": 15.777824312803581,
        "lon": 128.62390385215983,
        "alt_km": 1031.1116614928324,
        "timestamp": "2025-12-12T09:49:09.004855+00:00",
        "meta_object_name": "FENGYUN 1C DEB",
        "meta_object_id": "1999-025PB",
        "meta_epoch": "2025-12-11T21:09:33.055776",
        "meta_mean_motion": 13.85044941,
        "meta_eccentricity": 0.0171602,
        "meta_inclination": 96.8179,
        "meta_ra_of_asc_node": 306.3026,
        "meta_arg_of_pericenter": 32.5987,
        "meta_mean_anomaly": 21.2529,
        "meta_ephemeris_type": 0,
        "meta_classification_type": "U",
        "meta_norad_cat_id": 30050,
        "meta_element_set_no": 999,
        "meta_rev_at_epoch": 95190,
        "meta_bstar": 0.001983,
        "meta_mean_motion_dot": 2.491e-05,
        "meta_mean_motion_ddot": 0,
        "tle_line1": "1 30050U 99025PB  25345.88163259  .00002491  00000+0  19830-2 0  9992",
        "tle_line2": "2 30050  96.8179 306.3026 0171602  32.5987  21.2529 13.85044941951905"
      },
      "geometry": {
        "type": "Point",
        "coordinates": [
          128.62390385215983,
          15.777824312803581
        ]
      }
    },
    {
      "type": "Feature",
      "properties": {
        "norad_id": 30052,
        "name": "FENGYUN 1C DEB",
        "group": "fengyun-1c-debris",
        "lat": 80.58793169178892,
        "lon": -86.71542347175169,
        "alt_km": 1146.2360980465655,
        "timestamp": "2025-12-12T09:49:09.004866+00:00",
        "meta_object_name": "FENGYUN 1C DEB",
        "meta_object_id": "1999-025PD",
        "meta_epoch": "2025-12-12T00:53:10.166208",
        "meta_mean_motion": 13.72958832,
        "meta_eccentricity": 0.0288988,
        "meta_inclination": 99.2994,
        "meta_ra_of_asc_node": 11.6514,
        "meta_arg_of_pericenter": 234.1095,
        "meta_mean_anomaly": 180.673,
        "meta_ephemeris_type": 0,
        "meta_classification_type": "U",
        "meta_norad_cat_id": 30052,
        "meta_element_set_no": 999,
        "meta_rev_at_epoch": 94545,
        "meta_bstar": 0.00065982,
        "meta_mean_motion_dot": 7.77e-06,
        "meta_mean_motion_ddot": 0,
        "tle_line1": "1 30052U 99025PD  25346.03692322  .00000777  00000+0  65982-3 0  9995",
        "tle_line2": "2 30052  99.2994  11.6514 0288988 234.1095 180.6730 13.72958832945459"
      },
      "geometry": {
        "type": "Point",
        "coordinates": [
          -86.71542347175169,
          80.58793169178892
        ]
      }
    },
    {
      "type": "Feature",
      "properties": {
        "norad_id": 30053,
        "name": "FENGYUN 1C DEB",
        "group": "fengyun-1c-debris",
        "lat": -78.15323121096661,
        "lon": -66.46270057403734,
        "alt_km": 861.7995033934185,
        "timestamp": "2025-12-12T09:49:09.004877+00:00",
        "meta_object_name": "FENGYUN 1C DEB",
        "meta_object_id": "1999-025PE",
        "meta_epoch": "2025-12-11T22:58:27.797952",
        "meta_mean_motion": 13.94131174,
        "meta_eccentricity": 0.0331538,
        "meta_inclination": 98.5757,
        "meta_ra_of_asc_node": 159.1189,
        "meta_arg_of_pericenter": 340.5925,
        "meta_mean_anomaly": 178.2748,
        "meta_ephemeris_type": 0,
        "meta_classification_type": "U",
        "meta_norad_cat_id": 30053,
        "meta_element_set_no": 999,
        "meta_rev_at_epoch": 94975,
        "meta_bstar": 0.0020546,
        "meta_mean_motion_dot": 4.258e-05,
        "meta_mean_motion_ddot": 0,
        "tle_line1": "1 30053U 99025PE  25345.95726618  .00004258  00000+0  20546-2 0  9996",
        "tle_line2": "2 30053  98.5757 159.1189 0331538 340.5925 178.2748 13.94131174949754"
      },
      "geometry": {
        "type": "Point",
        "coordinates": [
          -66.46270057403734,
          -78.15323121096661
        ]
      }
    },
    {
      "type": "Feature",
      "properties": {
        "norad_id": 30054,
        "name": "FENGYUN 1C DEB",
        "group": "fengyun-1c-debris",
        "lat": 33.319694194865065,
        "lon": 12.420084205318876,
        "alt_km": 816.5969026618832,
        "timestamp": "2025-12-12T09:49:09.004888+00:00",
        "meta_object_name": "FENGYUN 1C DEB",
        "meta_object_id": "1999-025PF",
        "meta_epoch": "2025-12-12T01:02:06.139104",
        "meta_mean_motion": 13.69863848,
        "meta_eccentricity": 0.0275881,
        "meta_inclination": 99.3718,
        "meta_ra_of_asc_node": 18.2957,
        "meta_arg_of_pericenter": 7.0705,
        "meta_mean_anomaly": 21.3961,
        "meta_ephemeris_type": 0,
        "meta_classification_type": "U",
        "meta_norad_cat_id": 30054,
        "meta_element_set_no": 999,
        "meta_rev_at_epoch": 94339,
        "meta_bstar": 0.00077103,
        "meta_mean_motion_dot": 8.4e-06,
        "meta_mean_motion_ddot": 0,
        "tle_line1": "1 30054U 99025PF  25346.04312661  .00000840  00000+0  77103-3 0  9992",
        "tle_line2": "2 30054  99.3718  18.2957 0275881   7.0705  21.3961 13.69863848943399"
      },
      "geometry": {
        "type": "Point",
        "coordinates": [
          12.420084205318876,
          33.319694194865065
        ]
      }
    },
    {
      "type": "Feature",
      "properties": {
        "norad_id": 30056,
        "name": "FENGYUN 1C DEB",
        "group": "fengyun-1c-debris",
        "lat": -26.509673935346374,
        "lon": 176.28459126635497,
        "alt_km": 1101.5809744061598,
        "timestamp": "2025-12-12T09:49:09.004898+00:00",
        "meta_object_name": "FENGYUN 1C DEB",
        "meta_object_id": "1999-025PH",
        "meta_epoch": "2025-12-11T23:28:05.965248",
        "meta_mean_motion": 13.73977522,
        "meta_eccentricity": 0.0299679,
        "meta_inclination": 98.3229,
        "meta_ra_of_asc_node": 171.7211,
        "meta_arg_of_pericenter": 212.8882,
        "meta_mean_anomaly": 145.3309,
        "meta_ephemeris_type": 0,
        "meta_classification_type": "U",
        "meta_norad_cat_id": 30056,
        "meta_element_set_no": 999,
        "meta_rev_at_epoch": 93965,
        "meta_bstar": 0.0042641,
        "meta_mean_motion_dot": 5.502e-05,
        "meta_mean_motion_ddot": 0,
        "tle_line1": "1 30056U 99025PH  25345.97784682  .00005502  00000+0  42641-2 0  9999",
        "tle_line2": "2 30056  98.3229 171.7211 0299679 212.8882 145.3309 13.73977522939655"
      },
      "geometry": {
        "type": "Point",
        "coordinates": [
          176.28459126635497,
          -26.509673935346374
        ]
      }
    },
    {
      "type": "Feature",
      "properties": {
        "norad_id": 30057,
        "name": "FENGYUN 1C DEB",
        "group": "fengyun-1c-debris",
        "lat": 65.23882425211697,
        "lon": -105.00344142113929,
        "alt_km": 857.9841219864938,
        "timestamp": "2025-12-12T09:49:09.004909+00:00",
        "meta_object_name": "FENGYUN 1C DEB",
        "meta_object_id": "1999-025PJ",
        "meta_epoch": "2025-12-12T04:14:16.217376",
        "meta_mean_motion": 13.57120382,
        "meta_eccentricity": 0.0292613,
        "meta_inclination": 98.8831,
        "meta_ra_of_asc_node": 54.9668,
        "meta_arg_of_pericenter": 147.9142,
        "meta_mean_anomaly": 271.5178,
        "meta_ephemeris_type": 0,
        "meta_classification_type": "U",
        "meta_norad_cat_id": 30057,
        "meta_element_set_no": 999,
        "meta_rev_at_epoch": 93228,
        "meta_bstar": 0.0018967,
        "meta_mean_motion_dot": 1.747e-05,
        "meta_mean_motion_ddot": 0,
        "tle_line1": "1 30057U 99025PJ  25346.17657659  .00001747  00000+0  18967-2 0  9997",
        "tle_line2": "2 30057  98.8831  54.9668 0292613 147.9142 271.5178 13.57120382932280"
      },
      "geometry": {
        "type": "Point",
        "coordinates": [
          -105.00344142113929,
          65.23882425211697
        ]
      }
    },
    {
      "type": "Feature",
      "properties": {
        "norad_id": 30058,
        "name": "FENGYUN 1C DEB",
        "group": "fengyun-1c-debris",
        "lat": -13.789346872453349,
        "lon": 168.27290853861754,
        "alt_km": 901.5037974286297,
        "timestamp": "2025-12-12T09:49:09.004919+00:00",
        "meta_object_name": "FENGYUN 1C DEB",
        "meta_object_id": "1999-025PK",
        "meta_epoch": "2025-12-12T00:16:13.575936",
        "meta_mean_motion": 13.48236061,
        "meta_eccentricity": 0.0315709,
        "meta_inclination": 99.6494,
        "meta_ra_of_asc_node": 350.2811,
        "meta_arg_of_pericenter": 154.185,
        "meta_mean_anomaly": 267.2719,
        "meta_ephemeris_type": 0,
        "meta_classification_type": "U",
        "meta_norad_cat_id": 30058,
        "meta_element_set_no": 999,
        "meta_rev_at_epoch": 92838,
        "meta_bstar": 0.00077145,
        "meta_mean_motion_dot": 6.07e-06,
        "meta_mean_motion_ddot": 0,
        "tle_line1": "1 30058U 99025PK  25346.01126824  .00000607  00000+0  77145-3 0  9994",
        "tle_line2": "2 30058  99.6494 350.2811 0315709 154.1850 267.2719 13.48236061928386"
      },
      "geometry": {
        "type": "Point",
        "coordinates": [
          168.27290853861754,
          -13.789346872453349
        ]
      }
    }
  ]
}